GUOWANG TEST OBJECT B   
1 69321U 26120B   26155.27875762  .00027005  00000+0  69390-3 0  9998
2 69321  55.0006  85.8667 0009100 296.4175  63.5919 15.39121370   705
GUOWANG TEST OBJECT C   
1 69322U 26120C   26155.47266880  .00020158  00000+0  51568-3 0  9996
2 69322  54.9977  84.9896 0009732 304.1612  55.8493 15.39427828   730
GUOWANG TEST OBJECT D   
1 69323U 26120D   26155.66644343  .00032137  00000+0  80800-3 0  9993
2 69323  55.0029  84.1123 0008002 301.7889  58.2360 15.39704502   764
QIANFAN-163             
1 69325U 26121A   26155.79350611  .00000024  00000+0  15178-4 0  9999
2 69325  89.0162 301.7692 0018880 224.0603 135.9049 13.60350658   472
QIANFAN-164             
1 69326U 26121B   26154.98411229  .00000122  00000+0  14664-3 0  9990
2 69326  89.0158 301.8507 0018193 228.0170 131.9437 13.60503556   366
SZ-22 MODULE            
1 69328U 25272C   26155.94793699  .00022470  00000+0  27599-3 0  9990
2 69328  41.4810  36.4880 0008356 350.2706   9.7969 15.59719201  1418
